[{"OBJECT_NAME":"STARLINK-5663","OBJECT_ID":"2023-013S","EPOCH":"2026-03-09T01:04:02.640000","MEAN_MOTION":15.02539408,"ECCENTRICITY":8.053e-5,"INCLINATION":43.0041,"RA_OF_ASC_NODE":303.7282,"ARG_OF_PERICENTER":243.6886,"MEAN_ANOMALY":116.3874,"EPHEMERIS_TYPE":0,"CLASSIFICATION_TYPE":"U","NORAD_CAT_ID":55347,"ELEMENT_SET_NO":999,"REV_AT_EPOCH":17161,"BSTAR":-0.00012622335,"MEAN_MOTION_DOT":-1.908e-5,"MEAN_MOTION_DDOT":0},{"OBJECT_NAME":"PSLV DEB","OBJECT_ID":"2001-049CY","EPOCH":"2026-03-09T18:20:37.296384","MEAN_MOTION":15.08389698,"ECCENTRICITY":0.00190632,"INCLINATION":97.9861,"RA_OF_ASC_NODE":156.2845,"ARG_OF_PERICENTER":340.3269,"MEAN_ANOMALY":19.722,"EPHEMERIS_TYPE":0,"CLASSIFICATION_TYPE":"U","NORAD_CAT_ID":27152,"ELEMENT_SET_NO":999,"REV_AT_EPOCH":30598,"BSTAR":0.00053695108,"MEAN_MOTION_DOT":8.318e-5,"MEAN_MOTION_DDOT":0}]
